{"type": "FeatureCollection", "features": [ {"type": "Feature", "properties": {"norad_id": 29973, "name": "FENGYUN 1C DEB", "group": "fengyun-1c-debris", "lat": -68.77251535591738, "lon": 143.19746672996706, "alt_km": 886.0402100659976, "timestamp": "2025-12-12T07:43:20.786184+00:00", "meta": {"OBJECT_NAME": "FENGYUN 1C DEB", "OBJECT_ID": "1999-025KX", "EPOCH": "2025-12-11T23:58:35.919840", "MEAN_MOTION": 14.06534493, "ECCENTRICITY": 0.00592661, "INCLINATION": 98.8426, "RA_OF_ASC_NODE": 346.5081, "ARG_OF_PERICENTER": 151.029, "MEAN_ANOMALY": 265.5824, "EPHEMERIS_TYPE": 0, "CLASSIFICATION_TYPE": "U", "NORAD_CAT_ID": 29973, "ELEMENT_SET_NO": 999, "REV_AT_EPOCH": 96708, "BSTAR": 0.00088587238, "MEAN_MOTION_DOT": 1.447e-05, "MEAN_MOTION_DDOT": 0}, "tle": {"line1": "1 29973U 99025KX  25345.99902685  .00001447  00000+0  88587-3 0  9996", "line2": "2 29973  98.8426 346.5081 0059266 151.0290 265.5824 14.06534493967083"}}, "geometry": {"type": "Point", "coordinates": [143.19746672996706, -68.77251535591738]}}, {"type": "Feature", "properties": {"norad_id": 29974, "name": "FENGYUN 1C DEB", "group": "fengyun-1c-debris", "lat": 79.08282852638054, "lon": -55.23259536892852, "alt_km": 802.4818546671395, "timestamp": "2025-12-12T07:43:20.786207+00:00", "meta": {"OBJECT_NAME": "FENGYUN 1C DEB", "OBJECT_ID": "1999-025KY", "EPOCH": "2025-12-11T16:43:27.389856", "MEAN_MOTION": 14.14841213, "ECCENTRICITY": 0.00468454, "INCLINATION": 98.8934, "RA_OF_ASC_NODE": 69.8744, "ARG_OF_PERICENTER": 85.1226, "MEAN_ANOMALY": 69.8617, "EPHEMERIS_TYPE": 0, "CLASSIFICATION_TYPE": "U", "NORAD_CAT_ID": 29974, "ELEMENT_SET_NO": 999, "REV_AT_EPOCH": 96910, "BSTAR": 0.001889622, "MEAN_MOTION_DOT": 3.643e-05, "MEAN_MOTION_DDOT": 0}, "tle": {"line1": "1 29974U 99025KY  25345.69684479  .00003643  00000+0  18896-2 0  9997", "line2": "2 29974  98.8934  69.8744 0046845  85.1226  69.8617 14.14841213969104"}}, "geometry": {"type": "Point", "coordinates": [-55.23259536892852, 79.08282852638054]}}, {"type": "Feature", "properties": {"norad_id": 29975, "name": "FENGYUN 1C DEB", "group": "fengyun-1c-debris", "lat": 59.247479510204464, "lon": -136.5631554327152, "alt_km": 914.683382045213, "timestamp": "2025-12-12T07:43:20.786219+00:00", "meta": {"OBJECT_NAME": "FENGYUN 1C DEB", "OBJECT_ID": "1999-025KZ", "EPOCH": "2025-12-12T00:34:56.271360", "MEAN_MOTION": 13.98025557, "ECCENTRICITY": 0.01136069, "INCLINATION": 99.3397, "RA_OF_ASC_NODE": 27.0774, "ARG_OF_PERICENTER": 15.6796, "MEAN_ANOMALY": 45.9323, "EPHEMERIS_TYPE": 0, "CLASSIFICATION_TYPE": "U", "NORAD_CAT_ID": 29975, "ELEMENT_SET_NO": 999, "REV_AT_EPOCH": 96427, "BSTAR": 8.4145481e-05, "MEAN_MOTION_DOT": 8e-07, "MEAN_MOTION_DDOT": 0}, "tle": {"line1": "1 29975U 99025KZ  25346.02426240  .00000080  00000+0  84145-4 0  9990", "line2": "2 29975  99.3397  27.0774 0113606  15.6796  45.9323 13.98025557964271"}}, "geometry": {"type": "Point", "coordinates": [-136.5631554327152, 59.247479510204464]}}, {"type": "Feature", "properties": {"norad_id": 29976, "name": "FENGYUN 1C DEB", "group": "fengyun-1c-debris", "lat": -61.6375599020506, "lon": 0.550465595444137, "alt_km": 796.1707771623542, "timestamp": "2025-12-12T07:43:20.786229+00:00", "meta": {"OBJECT_NAME": "FENGYUN 1C DEB", "OBJECT_ID": "1999-025LA", "EPOCH": "2025-12-11T23:42:45.342720", "MEAN_MOTION": 13.98107004, "ECCENTRICITY": 0.02674933, "INCLINATION": 98.9179, "RA_OF_ASC_NODE": 343.3171, "ARG_OF_PERICENTER": 241.6099, "MEAN_ANOMALY": 174.0859, "EPHEMERIS_TYPE": 0, "CLASSIFICATION_TYPE": "U", "NORAD_CAT_ID": 29976, "ELEMENT_SET_NO": 999, "REV_AT_EPOCH": 96326, "BSTAR": 0.00034781175, "MEAN_MOTION_DOT": 6.26e-06, "MEAN_MOTION_DDOT": 0}, "tle": {"line1": "1 29976U 99025LA  25345.98802480  .00000626  00000+0  34781-3 0  9995", "line2": "2 29976  98.9179 343.3171 0267493 241.6099 174.0859 13.98107004963265"}}, "geometry": {"type": "Point", "coordinates": [0.550465595444137, -61.6375599020506]}}, {"type": "Feature", "properties": {"norad_id": 29977, "name": "FENGYUN 1C DEB", "group": "fengyun-1c-debris", "lat": -34.246414529158876, "lon": 22.629542734708586, "alt_km": 814.3325222426583, "timestamp": "2025-12-12T07:43:20.786240+00:00", "meta": {"OBJECT_NAME": "FENGYUN 1C DEB", "OBJECT_ID": "1999-025LB", "EPOCH": "2025-12-11T13:44:39.060384", "MEAN_MOTION": 14.05077374, "ECCENTRICITY": 0.01284537, "INCLINATION": 98.3966, "RA_OF_ASC_NODE": 207.7067, "ARG_OF_PERICENTER": 260.2779, "MEAN_ANOMALY": 128.2899, "EPHEMERIS_TYPE": 0, "CLASSIFICATION_TYPE": "U", "NORAD_CAT_ID": 29977, "ELEMENT_SET_NO": 999, "REV_AT_EPOCH": 96344, "BSTAR": 0.0019924299, "MEAN_MOTION_DOT": 3.419e-05, "MEAN_MOTION_DDOT": 0}, "tle": {"line1": "1 29977U 99025LB  25345.57267431  .00003419  00000+0  19924-2 0  9996", "line2": "2 29977  98.3966 207.7067 0128453 260.2779 128.2899 14.05077374963445"}}, "geometry": {"type": "Point", "coordinates": [22.629542734708586, -34.246414529158876]}}, {"type": "Feature", "properties": {"norad_id": 29978, "name": "FENGYUN 1C DEB", "group": "fengyun-1c-debris", "lat": -47.14507357585301, "lon": 46.680331239220365, "alt_km": 925.2150885512237, "timestamp": "2025-12-12T07:43:20.786250+00:00", "meta": {"OBJECT_NAME": "FENGYUN 1C DEB", "OBJECT_ID": "1999-025LC", "EPOCH": "2025-12-11T02:50:15.607680", "MEAN_MOTION": 13.95906593, "ECCENTRICITY": 0.00767263, "INCLINATION": 99.0616, "RA_OF_ASC_NODE": 35.5921, "ARG_OF_PERICENTER": 56.6754, "MEAN_ANOMALY": 331.569, "EPHEMERIS_TYPE": 0, "CLASSIFICATION_TYPE": "U", "NORAD_CAT_ID": 29978, "ELEMENT_SET_NO": 999, "REV_AT_EPOCH": 96294, "BSTAR": -9.5711e-07, "MEAN_MOTION_DOT": -4.5e-07, "MEAN_MOTION_DDOT": 0}, "tle": {"line1": "1 29978U 99025LC  25345.11823620 -.00000045  00000+0 -95711-6 0  9991", "line2": "2 29978  99.0616  35.5921 0076726  56.6754 331.5690 13.95906593962941"}}, "geometry": {"type": "Point", "coordinates": [46.680331239220365, -47.14507357585301]}}, {"type": "Feature", "properties": {"norad_id": 29979, "name": "FENGYUN 1C DEB", "group": "fengyun-1c-debris", "lat": -73.42169362406125, "lon": 39.1910376151277, "alt_km": 850.8415021189485, "timestamp": "2025-12-12T07:43:20.786261+00:00", "meta": {"OBJECT_NAME": "FENGYUN 1C DEB", "OBJECT_ID": "1999-025LD", "EPOCH": "2025-12-11T23:56:45.390048", "MEAN_MOTION": 14.25960894, "ECCENTRICITY": 0.01075482, "INCLINATION": 98.3704, "RA_OF_ASC_NODE": 9.2401, "ARG_OF_PERICENTER": 165.1071, "MEAN_ANOMALY": 255.8181, "EPHEMERIS_TYPE": 0, "CLASSIFICATION_TYPE": "U", "NORAD_CAT_ID": 29979, "ELEMENT_SET_NO": 999, "REV_AT_EPOCH": 98063, "BSTAR": 0.00062953864, "MEAN_MOTION_DOT": 1.554e-05, "MEAN_MOTION_DDOT": 0}, "tle": {"line1": "1 29979U 99025LD  25345.99774757  .00001554  00000+0  62954-3 0  9998", "line2": "2 29979  98.3704   9.2401 0107548 165.1071 255.8181 14.25960894980635"}}, "geometry": {"type": "Point", "coordinates": [39.1910376151277, -73.42169362406125]}}, {"type": "Feature", "properties": {"norad_id": 29980, "name": "FENGYUN 1C DEB", "group": "fengyun-1c-debris", "lat": -61.02094405952598, "lon": -40.26420316519519, "alt_km": 816.5856893821256, "timestamp": "2025-12-12T07:43:20.786272+00:00", "meta": {"OBJECT_NAME": "FENGYUN 1C DEB", "OBJECT_ID": "1999-025LE", "EPOCH": "2025-12-12T00:18:15.978816", "MEAN_MOTION": 14.06314025, "ECCENTRICITY": 0.00868764, "INCLINATION": 98.5514, "RA_OF_ASC_NODE": 155.2078, "ARG_OF_PERICENTER": 249.8952, "MEAN_ANOMALY": 228.4395, "EPHEMERIS_TYPE": 0, "CLASSIFICATION_TYPE": "U", "NORAD_CAT_ID": 29980, "ELEMENT_SET_NO": 999, "REV_AT_EPOCH": 96982, "BSTAR": 0.00033802186, "MEAN_MOTION_DOT": 5.35e-06, "MEAN_MOTION_DDOT": 0}, "tle": {"line1": "1 29980U 99025LE  25346.01268494  .00000535  00000+0  33802-3 0  9998", "line2": "2 29980  98.5514 155.2078 0086876 249.8952 228.4395 14.06314025969827"}}, "geometry": {"type": "Point", "coordinates": [-40.26420316519519, -61.02094405952598]}}, {"type": "Feature", "properties": {"norad_id": 29982, "name": "FENGYUN 1C DEB", "group": "fengyun-1c-debris", "lat": -15.081123367594843, "lon": -15.027325693411669, "alt_km": 681.3402438441581, "timestamp": "2025-12-12T07:43:20.786283+00:00", "meta": {"OBJECT_NAME": "FENGYUN 1C DEB", "OBJECT_ID": "1999-025LG", "EPOCH": "2025-12-11T23:21:00.726048", "MEAN_MOTION": 14.66870969, "ECCENTRICITY": 0.0121918, "INCLINATION": 99.4017, "RA_OF_ASC_NODE": 167.1321, "ARG_OF_PERICENTER": 290.6584, "MEAN_ANOMALY": 224.8176, "EPHEMERIS_TYPE": 0, "CLASSIFICATION_TYPE": "U", "NORAD_CAT_ID": 29982, "ELEMENT_SET_NO": 999, "REV_AT_EPOCH": 272, "BSTAR": 0.001045227, "MEAN_MOTION_DOT": 6.461e-05, "MEAN_MOTION_DDOT": 0}, "tle": {"line1": "1 29982U 99025LG  25345.97292507  .00006461  00000+0  10452-2 0  9995", "line2": "2 29982  99.4017 167.1321 0121918 290.6584 224.8176 14.66870969  2726"}}, "geometry": {"type": "Point", "coordinates": [-15.027325693411669, -15.081123367594843]}}, {"type": "Feature", "properties": {"norad_id": 29985, "name": "FENGYUN 1C DEB", "group": "fengyun-1c-debris", "lat": 4.383802575316464, "lon": -177.93131150941318, "alt_km": 843.855687753342, "timestamp": "2025-12-12T07:43:20.786294+00:00", "meta": {"OBJECT_NAME": "FENGYUN 1C DEB", "OBJECT_ID": "1999-025LK", "EPOCH": "2025-12-12T00:20:20.546016", "MEAN_MOTION": 14.10323619, "ECCENTRICITY": 0.00280971, "INCLINATION": 98.7107, "RA_OF_ASC_NODE": 1.0973, "ARG_OF_PERICENTER": 211.1073, "MEAN_ANOMALY": 203.4495, "EPHEMERIS_TYPE": 0, "CLASSIFICATION_TYPE": "U", "NORAD_CAT_ID": 29985, "ELEMENT_SET_NO": 999, "REV_AT_EPOCH": 97338, "BSTAR": 4.7236116e-05, "MEAN_MOTION_DOT": 4.1e-07, "MEAN_MOTION_DDOT": 0}, "tle": {"line1": "1 29985U 99025LK  25346.01412669  .00000041  00000+0  47236-4 0  9997", "line2": "2 29985  98.7107   1.0973 0028097 211.1073 203.4495 14.10323619973385"}}, "geometry": {"type": "Point", "coordinates": [-177.93131150941318, 4.383802575316464]}}]}